[{"OBJECT_NAME":"STARLINK-4586","OBJECT_ID":"2022-104BA","EPOCH":"2026-03-09T15:54:17.687808","MEAN_MOTION":15.08888095,"ECCENTRICITY":8.79e-5,"INCLINATION":53.2164,"RA_OF_ASC_NODE":224.0637,"ARG_OF_PERICENTER":62.9427,"MEAN_ANOMALY":297.1655,"EPHEMERIS_TYPE":0,"CLASSIFICATION_TYPE":"U","NORAD_CAT_ID":53636,"ELEMENT_SET_NO":999,"REV_AT_EPOCH":19622,"BSTAR":0.0014846643,"MEAN_MOTION_DOT":0.00023451,"MEAN_MOTION_DDOT":0},{"OBJECT_NAME":"ICON","OBJECT_ID":"2019-068A","EPOCH":"2026-03-09T22:35:01.599072","MEAN_MOTION":15.06276737,"ECCENTRICITY":0.00134076,"INCLINATION":26.9847,"RA_OF_ASC_NODE":325.9297,"ARG_OF_PERICENTER":187.0145,"MEAN_ANOMALY":173.0229,"EPHEMERIS_TYPE":0,"CLASSIFICATION_TYPE":"U","NORAD_CAT_ID":44628,"ELEMENT_SET_NO":999,"REV_AT_EPOCH":35105,"BSTAR":0.00030799545,"MEAN_MOTION_DOT":4.879e-5,"MEAN_MOTION_DDOT":0}]
